              M50 Cartesian                         M50 Keplerian  
    -----------------------------------       --------------------------------
     X    =        -353746.27                 A    =         6777477.13  meter
     Y    =       -4220632.12  meter          E    =           .0020673
     Z    =       -5308605.20                 I    =           51.55515
     XDOT =       7564.547118                 Wp   =           81.60550
     YDOT =      -1100.855090  meter/sec      RA   =          349.48586  deg
     ZDOT =        375.369012                 TA   =          191.96022
                                              MA   =          192.00938
                                              Ha   =            223.356  n.mi
                                              Hp   =            212.470
 
              M50 Cartesian                         J2K Cartesian  
    -----------------------------------       --------------------------------
     X    =       -1160584.88                 X    =         -280736.76
     Y    =      -13847218.25  feet           Y    =        -4224179.97  meter
     Z    =      -17416683.71                 Z    =        -5310146.09
     XDOT =      24818.067974                 XDOT =        7574.471565
     YDOT =      -3611.729299  feet/sec       YDOT =       -1016.207698  meter/sec
     ZDOT =       1231.525631                 ZDOT =         412.139970
 
              TDR Cartesian                         TDR Cartesian  
    -----------------------------------       --------------------------------
     X    =      -13618541.51                 X    =        -4150931.45
     Y    =       -2723761.73  feet           Y    =         -830202.58  meter
     Z    =      -17422678.65                 Z    =        -5310432.45
     XDOT =       3009.247728                 XDOT =         917.218707
     YDOT =     -23871.860817  feet/sec       YDOT =       -7276.143177  meter/sec
     ZDOT =       1393.577846                 ZDOT =         424.762527
  
  
    The mean element set is posted at the UTC for which position is
    just north of the next ascending node relative to the above
    vector time
 
 
    TWO LINE MEAN ELEMENT SET
  
    ISS
    1 25544U 98067A   17105.65773899  .00016717  00000-0  10270-3 0  9049
    2 25544  51.6392 349.9829 0006810  57.1770 303.0037 15.54109247 12023
  
  
    Satellite: ISS
    Catalog Number: 25544
    Epoch time:      17105.65773899   =   yrday.fracday
    Element set:     904
    Inclination:       51.6392  deg
    RA of node:       349.9829  deg
    Eccentricity:     .0006810     
    Arg of perigee:    57.1770  deg
    Mean anomaly:     303.0037  deg
    Mean motion:   15.54109247  rev/day
    Decay rate:    1.67170E-04  rev/day^2
    Epoch rev:            1202
    Checksum:              316
 
 
    Coasting Arc #6 (Orbit 1217)
    ---------------------------------------
 
    Vector Time (GMT): 2017/106/15:00:00.000
    Vector Time (MET): N/A
    Weight (LBS)     : 885943.0
 
              M50 Cartesian                         M50 Keplerian  
    -----------------------------------       --------------------------------
     X    =        6604614.51                 A    =         6788563.29  meter
     Y    =        -704394.31  meter          E    =           .0020561
     Z    =        1354237.20                 I    =           51.56089
     XDOT =       -672.843191                 Wp   =           60.02122
     YDOT =       4968.174799  meter/sec      RA   =          344.59940  deg
     ZDOT =       5809.605494                 TA   =          314.75570
                                              MA   =          314.92283
                                              Ha   =            223.326  n.mi
                                              Hp   =            212.440
 
              M50 Cartesian                         J2K Cartesian  
    -----------------------------------       --------------------------------
     X    =       21668682.78                 X    =         6605422.05
     Y    =       -2311004.95  feet           Y    =         -630532.48  meter
     Z    =        4443035.44                 Z    =         1386322.81
     XDOT =      -2207.490785                 XDOT =        -756.569219
     YDOT =      16299.786085  feet/sec       YDOT =        4960.182681  meter/sec
     ZDOT =      19060.385479                 ZDOT =        5806.133445
 
              TDR Cartesian                         TDR Cartesian  
    -----------------------------------       --------------------------------
     X    =        5566580.65                 X    =         1696693.78
     Y    =      -21038291.61  feet           Y    =        -6412471.28  meter
     Z    =        4584385.13                 Z    =         1397320.59
     XDOT =      12860.806122                 XDOT =        3919.973706
     YDOT =       7591.533353  feet/sec       YDOT =        2313.899366  meter/sec
     ZDOT =      19044.177097                 ZDOT =        5804.665179
  
  
    The mean element set is posted at the UTC for which position is
    just north of the next ascending node relative to the above
    vector time
 
 
    TWO LINE MEAN ELEMENT SET
  
    ISS
    1 25544U 98067A   17106.68658583  .00016717  00000-0  10270-3 0  9056
    2 25544  51.6390 344.8551 0006720  60.5885 299.5938 15.54109733 12188
  
  
    Satellite: ISS
    Catalog Number: 25544
    Epoch time:      17106.68658583   =   yrday.fracday
    Element set:     905
    Inclination:       51.6390  deg
    RA of node:       344.8551  deg
    Eccentricity:     .0006720     
    Arg of perigee:    60.5885  deg
    Mean anomaly:     299.5938  deg
    Mean motion:   15.54109733  rev/day
    Decay rate:    1.67170E-04  rev/day^2
    Epoch rev:            1218
    Checksum:              338
 
 
    Coasting Arc #7 (Orbit 1232)
    ---------------------------------------
 
    Vector Time (GMT): 2017/107/15:00:00.000
    Vector Time (MET): N/A
    Weight (LBS)     : 885943.0
 
              M50 Cartesian                         M50 Keplerian  
    -----------------------------------       --------------------------------
     X    =       -6116837.72                 A    =         6785560.22  meter
     Y    =        -220173.75  meter          E    =           .0010392
     Z    =       -2939895.16                 I    =           51.52005
     XDOT =       2582.531561                 Wp   =           82.10839
     YDOT =      -5197.497873  meter/sec      RA   =          339.61727  deg
     ZDOT =      -4997.830173                 TA   =          131.46969
                                              MA   =          131.38042
                                              Ha   =            223.358  n.mi
                                              Hp   =            212.287
 
              M50 Cartesian                         J2K Cartesian  
    -----------------------------------       --------------------------------
     X    =      -20068365.24                 X    =        -6099640.33
     Y    =        -722354.82  feet           Y    =         -288480.30  meter
     Z    =       -9645325.32                 Z    =        -2969567.43
     XDOT =       8472.872575                 XDOT =        2664.736689
     YDOT =     -17052.158376  feet/sec       YDOT =       -5168.158779  meter/sec
     ZDOT =     -16397.080620                 ZDOT =       -4985.085060
 
              TDR Cartesian                         TDR Cartesian  
    -----------------------------------       --------------------------------
     X    =       -7498948.67                 X    =        -2285679.55
     Y    =       18560479.55  feet           Y    =         5657234.17  meter
     Z    =       -9775875.82                 Z    =        -2979686.95
     XDOT =     -11754.325065                 XDOT =       -3582.718280
     YDOT =     -13331.923981  feet/sec       YDOT =       -4063.570429  meter/sec
     ZDOT =     -16340.019997                 ZDOT =       -4980.438095
  
  
    The mean element set is posted at the UTC for which position is
    just north of the next ascending node relative to the above
    vector time
 
 
    TWO LINE MEAN ELEMENT SET
  
    ISS
    1 25544U 98067A   17107.65112592  .00016717  00000-0  10270-3 0  9060
    2 25544  51.6389 340.0465 0006795  63.6948 296.4902 15.54130175 12332
  
  
    Satellite: ISS
    Catalog Number: 25544
    Epoch time:      17107.65112592   =   yrday.fracday
    Element set:     906
    Inclination:       51.6389  deg
    RA of node:       340.0465  deg
    Eccentricity:     .0006795     
    Arg of perigee:    63.6948  deg
    Mean anomaly:     296.4902  deg
    Mean motion:   15.54130175  rev/day
    Decay rate:    1.67170E-04  rev/day^2
    Epoch rev:            1233
    Checksum:              316
 
 
    Coasting Arc #8 (Orbit 1248)
    ---------------------------------------
 
    Vector Time (GMT): 2017/108/15:00:00.000
    Vector Time (MET): N/A
    Weight (LBS)     : 885943.0
 
              M50 Cartesian                         M50 Keplerian  
    -----------------------------------       --------------------------------
     X    =        5195826.85                 A    =         6781784.02  meter
     Y    =        1212012.43  meter          E    =           .0015919
     Z    =        4172764.58                 I    =           51.47750
     XDOT =      -4204.033557                 Wp   =           90.18046
     YDOT =       5251.657730  meter/sec      RA   =          334.62311  deg
     ZDOT =       3697.116525                 TA   =          321.76605
                                              MA   =          321.87884
                                              Ha   =            223.221  n.mi
                                              Hp   =            212.342
 
